GLOBALSTAR M024         
1 25883U 99043A   25341.73012591 -.00000121  00000+0 -19905-2 0  9995
2 25883  52.0044 349.0475 0001485  19.7180 151.4260 11.10167238134130
GLOBALSTAR M027         
1 25884U 99043B   25341.91773807 -.00000117  00000+0 -20344-2 0  9994
2 25884  52.0227  71.5267 0020939 270.6716  89.1678 11.04372319160431
GLOBALSTAR M054         
1 25885U 99043C   25341.84390578 -.00000065  00000+0  15288-3 0  9990
2 25885  52.0099 169.8491 0006009 109.9793 262.4841 11.39224684138847
GLOBALSTAR M053         
1 25886U 99043D   25341.70965830 -.00000081  00000+0 -35541-3 0  9998
2 25886  51.9960 126.8915 0003626  37.9636 335.2649 11.27668987139026
GLOBALSTAR M058         
1 25907U 99049A   25341.79713355 -.00000045  00000+0  52769-3 0  9990
2 25907  51.9966   5.5871 0001775 242.0044 118.0612 11.93206844562261
GLOBALSTAR M050         
1 25908U 99049B   25341.83077106 -.00000045  00000+0  49197-3 0  9994
2 25908  52.0014   0.2004 0009079  18.7813 151.8954 12.07461977169167
GLOBALSTAR M033         
1 25909U 99049C   25341.91580179 -.00000091  00000+0  81634-5 0  9998
2 25909  51.9899 219.8009 0013172 263.2772  96.6576 12.20294071556957
GLOBALSTAR M055         
1 25910U 99049D   25341.91408695 -.00000039  00000+0  47641-3 0  9992
2 25910  52.0006 222.0932 0007549 125.0041 235.1520 12.29437563189659
